#aV2019  7 22  0  0  0.00000000     288 DD+AD WGS84 FIT  NGA
## 2063  86400.00000000   300.00000000 58686 0.0000000000000
+   31     1  2  3  5  6  7  8  9 10 11 12 13 14 15 16 17 18
+         19 20 21 22 23 24 25 26 27 28 29 30 31 32  0  0  0
+          0  0  0  0  0  0  0  0  0  0  0  0  0  0  0  0  0
+          0  0  0  0  0  0  0  0  0  0  0  0  0  0  0  0  0
+          0  0  0  0  0  0  0  0  0  0  0  0  0  0  0  0  0
++         2  2  2  2  2  2  2  2  2  2  2  2  2  2  2  2  2
++         2  2  2  2  2  2  2  2  2  2  2  2  2  2  0  0  0
++         0  0  0  0  0  0  0  0  0  0  0  0  0  0  0  0  0
++         0  0  0  0  0  0  0  0  0  0  0  0  0  0  0  0  0
++         0  0  0  0  0  0  0  0  0  0  0  0  0  0  0  0  0
%c cc cc ccc ccc cccc cccc cccc cccc ccccc ccccc ccccc ccccc
%c cc cc ccc ccc cccc cccc cccc cccc ccccc ccccc ccccc ccccc
%f  0.0000000  0.000000000  0.00000000000  0.000000000000000
%f  0.0000000  0.000000000  0.00000000000  0.000000000000000
%i    0    0    0    0      0      0      0      0         0
%i    0    0    0    0      0      0      0      0         0
/*      NGA, ST. LOUIS,MO.                                  
/*   EPHEMERIS COMPUTED FROM 2 DAYS OF DATA                 
/*   EPOCHA v5 SMOOTHER                                     
/*   G1762 IERS2010 SATAF SATAPC                            
*  2019  7 22 16 30  0.00000000
P  1  17490.246956   5886.754081  19026.306149    -74.556580                    
V  1  10247.288682  22195.360166 -15808.755642     -0.107380                    
P  2 -14819.617218 -22003.138661  -1796.376307   -265.970063                    
V  2    923.619181  -4072.926354  31436.922911     -0.085551                    
P  3  18528.905050  -5753.849518  18052.918326    179.589953                    
V  3 -11032.674120  20291.676419  17832.606506     -0.023219                    
P  5  -8605.864925 -14388.593346 -20683.520586     -0.113155                    
V  5  14255.703235 -21836.616717   9519.552848     -0.002154                    
P  6  -4463.613378 -23941.166270  10599.309812     -1.746093                    
V  6   8048.719976  10897.104542  28138.130990     -0.113786                    
P  7  11840.583890  -9955.855448 -21272.306598    -69.618151                    
V  7  13066.711122  24467.960676  -4599.492351     -0.077301                    
P  8  25309.042642   5217.262456  -6570.705758   -152.182038                    
V  8  -8384.174038   2007.738715 -30363.584778     -0.014811                    
P  9  21151.399745  -8943.381613 -13391.537626    365.155690                    
V  9  16882.469067   2886.421919  24800.597444     -0.084626                    
P 10 -10309.617001  23701.581904   5686.495042    -25.100165                    
V 10  -6200.959896   4573.700947 -30845.622512     -0.132775                    
P 11  22771.718030   5719.317197  11624.355161   -554.750236                    
V 11  10265.691642  12656.928470 -25471.021549      0.095407                    
P 12 -17641.661052   2059.914852  19476.656017    221.422109                    
V 12  14021.951755 -20963.989188  14913.585014     -0.036424                    
P 13 -18716.217618 -12864.179750 -13926.158552    -53.395319                    
V 13  17545.973530    969.899090 -24615.446620      0.018148                    
P 14   4461.919379  15614.332748  21376.279675    -70.296829                    
V 14 -26223.285295  -2656.371142   7348.799795      0.018283                    
P 15 -25853.792094  -3363.754409  -6330.490549   -299.215228                    
V 15   7460.254381  -3717.697700 -29377.994423      0.024915                    
P 16   6534.280550  14732.889068 -21208.743614    -58.413713                    
V 16 -16745.307631  20595.829031   9648.853525     -0.032401                    
P 17   4747.201880 -14382.970281  22219.951680     93.226184                    
V 17  27021.514638   2884.892095  -4063.627371      0.066633                    
P 18  18520.921039  13907.163494  12605.258447     71.928705                    
V 18   6347.162543  15736.661042 -25554.680086      0.029899                    
P 19  -2297.177764 -14883.866352  21567.419504   -290.831774                    
V 19  27835.202492   3582.576226   5410.940559      0.049180                    
P 20 -14131.653550  21947.960839  -4506.816490    526.091803                    
V 20   -996.989193  -6726.543802 -30490.448594      0.002078                    
P 21  -6969.350174  15626.609102 -19569.843646   -149.977443                    
V 21 -14793.054383 -22147.192520 -11777.077673      0.069694                    
P 22  16607.502529   2035.295837  20841.833242   -734.448893                    
V 22 -11541.905229  23417.872648   7075.069789     -0.049391                    
P 23  26745.569341   -120.784575   -987.554559   -175.992812                    
V 23   1578.399750   3081.547253  31067.812415      0.018646                    
P 24 -19000.437114  -7952.147194  16790.252812    -69.141561                    
V 24  -9217.026609 -19596.970362 -19195.862620     -0.004857                    
P 25 -18584.306223  15153.134638  10931.468160     -2.702938                    
V 25   5638.339184 -13338.236919  27785.279146     -0.025294                    
P 26   -657.765252  21868.698677 -14951.285170    257.505645                    
V 26 -11818.196000  15127.934880  22850.787451      0.092112                    
P 27  16776.770202  12087.941765 -16951.558122   -192.340513                    
V 27 -21181.585699    391.658321 -20531.663849     -0.109304                    
P 28  12068.425864 -22933.580793   6650.151716    766.086821                    
V 28   6135.032957  -4880.472782 -30677.950544     -0.005006                    
P 29 -23703.983165   4794.228500 -11039.056275    144.769989                    
V 29 -13651.226537  -3225.655363  27989.108980     -0.098305                    
P 30   4339.840257 -19861.553623 -16961.178042     -4.242934                    
V 30  11274.216590  18712.431126 -19189.542747     -0.075839                    
P 31   4941.909900  24314.696870   8826.878975     22.545677                    
V 31  -7634.151567  -8909.339109  29239.207204     -0.025926                    
P 32  -4097.593873  15060.760601  21541.889002      7.357878                    
V 32 -27200.089257  -1399.723261  -4327.759004      0.150974                    
EOF
